{
    "links": {
        "self": "http://www.neowsapp.com/rest/v1/neo/3761736?api_key=iIulBulltgU6a56xZRHN4H3l9WmuAYTsLGpBGhQ2"
    },
    "id": "3761736",
    "neo_reference_id": "3761736",
    "name": "(2016 UM36)",
    "designation": "2016 UM36",
    "nasa_jpl_url": "http://ssd.jpl.nasa.gov/sbdb.cgi?sstr=3761736",
    "absolute_magnitude_h": 24.3,
    "estimated_diameter": {
        "kilometers": {
            "estimated_diameter_min": 0.0366906138,
            "estimated_diameter_max": 0.0820427065
        },
        "meters": {
            "estimated_diameter_min": 36.6906137531,
            "estimated_diameter_max": 82.0427064882
        },
        "miles": {
            "estimated_diameter_min": 0.0227984834,
            "estimated_diameter_max": 0.0509789586
        },
        "feet": {
            "estimated_diameter_min": 120.3760332259,
            "estimated_diameter_max": 269.1689931548
        }
    },
    "is_potentially_hazardous_asteroid": false,
    "close_approach_data": [
        {
            "close_approach_date": "2016-10-12",
            "close_approach_date_full": "2016-Oct-12 19:59",
            "epoch_date_close_approach": 1476302340000,
            "relative_velocity": {
                "kilometers_per_second": "14.5530476497",
                "kilometers_per_hour": "52390.9715389139",
                "miles_per_hour": "32553.7122876101"
            },
            "miss_distance": {
                "astronomical": "0.0751129736",
                "lunar": "29.2189467304",
                "kilometers": "11236740.859926232",
                "miles": "6982187.0020447216"
            },
            "orbiting_body": "Earth"
        }
    ],
    "orbital_data": {
        "orbit_id": "4",
        "orbit_determination_date": "2017-04-06 08:22:47",
        "first_observation_date": "2016-10-25",
        "last_observation_date": "2016-11-04",
        "data_arc_in_days": 10,
        "observations_used": 22,
        "orbit_uncertainty": "9",
        "minimum_orbit_intersection": ".0309111",
        "jupiter_tisserand_invariant": "3.260",
        "epoch_osculation": "2457687.5",
        "eccentricity": ".6201093382959348",
        "semi_major_axis": "2.360062544268599",
        "inclination": "2.9724363292209",
        "ascending_node_longitude": "246.5332207468388",
        "orbital_period": "1324.291816977373",
        "perihelion_distance": ".8965657216051777",
        "perihelion_argument": "82.59641724921833",
        "aphelion_distance": "3.823559366932021",
        "perihelion_time": "2457639.385104402459",
        "mean_anomaly": "13.07971716887134",
        "mean_motion": ".2718434074611148",
        "equinox": "J2000",
        "orbit_class": {
            "orbit_class_type": "APO",
            "orbit_class_description": "Near-Earth asteroid orbits which cross the Earth’s orbit similar to that of 1862 Apollo",
            "orbit_class_range": "a (semi-major axis) > 1.0 AU; q (perihelion) < 1.017 AU"
        }
    },
    "is_sentry_object": false
}